STARLINK-34361          
1 64450U 25130N   25197.15500853  .00037940  00000+0  68608-3 0  9994
2 64450  53.1609 113.9564 0001336  42.4706 317.6406 15.49343345  5564
STARLINK-34392          
1 64451U 25130P   25197.09015687  .00017376  00000+0  31955-3 0  9990
2 64451  53.1610 114.2619 0001143  71.9266 288.1868 15.49328945  5626
STARLINK-34367          
1 64452U 25130Q   25197.16668981 -.01803999  00000+0 -43804-1 0  9991
2 64452  53.1604 113.9248 0001568  59.5571 354.1742 15.43579367  5621
STARLINK-34221          
1 64453U 25130R   25196.91668981 -.00003118  00000+0 -68015-4 0  9992
2 64453  53.1609 115.1887 0001595  75.8054 347.5727 15.39612225  5666
STARLINK-34282          
1 64454U 25130S   25197.15371281 -.00313050  00000+0 -59357-2 0  9990
2 64454  53.1611 113.9471 0001752  64.4399 295.6790 15.48888257  5467
STARLINK-34295          
1 64455U 25130T   25197.21776339  .00219022  00000+0  38604-2 0  9995
2 64455  53.1603 113.6362 0002888 216.8134 143.2677 15.49132524  5626
STARLINK-34430          
1 64456U 25130U   25197.08844002  .00042905  00000+0  77501-3 0  9998
2 64456  53.1602 114.2520 0001190  79.6814 280.4329 15.49317975  5593
STARLINK-34445          
1 64457U 25130V   25197.15260664  .00020209  00000+0  37019-3 0  9996
2 64457  53.1612 113.9401 0002057  41.8269 318.2897 15.49330068  5618
STARLINK-34439          
1 64458U 25130W   25197.08775140  .00033202  00000+0  60254-3 0  9993
2 64458  53.1608 114.2464 0001291  80.8636 279.2519 15.49306482  5594
STARLINK-34421          
1 64459U 25130X   25197.15191843  .00019048  00000+0  34946-3 0  9995
2 64459  53.1610 113.9351 0001369  77.7580 282.3582 15.49328551  5606
STARLINK-34423          
1 64460U 25130Y   25197.15157590  .00003550  00000+0  71839-4 0  9992
2 64460  53.1610 113.9334 0001539  73.2740 286.8438 15.49316361  5624
STARLINK-34418          
1 64461U 25130Z   25197.08672150  .00020683  00000+0  37864-3 0  9994
2 64461  53.1613 114.2388 0001178  78.1413 281.9729 15.49333003  5598
STARLINK-34336          
1 64462U 25130AA  25197.19241392 -.00259161  00000+0 -18620-2 0  9992
2 64462  53.1588 112.0079 0000868 168.1608 191.9432 15.73663720  5651
STARLINK-34400          
1 64463U 25130AB  25197.08569256  .00054556  00000+0  98168-3 0  9998
2 64463  53.1615 114.2321 0001424  67.8806 292.2354 15.49322162  5609
STARLINK-34429          
1 64464U 25130AC  25197.15054521  .00048996  00000+0  88313-3 0  9993
2 64464  53.1606 113.9263 0001180  85.0626 275.0518 15.49320519  5607
STARLINK-34449          
1 64465U 25130AD  25197.14987839  .00079432  00000+0  14223-2 0  9997
2 64465  53.1601 113.9214 0000690 100.2433 259.8654 15.49298222  5617
COSMOS 2589             
1 64467U 25131A   25196.77281203 -.00000279  00000+0  00000+0 0  9999
2 64467   0.9946 280.8629 3655360 173.8068 219.0819  1.00268214   254
CHINASAT 9C             
1 64471U 25132B   25196.69058101  .00017863  00000+0  18706-2 0  9996
2 64471  27.7572  85.8105 7325470 194.9251 118.0005  2.24748052   560
STARLINK-34493          
1 64472U 25133A   25197.16668981 -.01497124  00000+0 -29445-1 0  9990
2 64472  53.1605 144.3126 0000997  80.7627 171.4088 15.49567292  4846
STARLINK-34492          
1 64473U 25133B   25196.91668981  .00031543  00000+0  57324-3 0  9998
2 64473  53.1607 145.5025 0000945 100.8036 198.1372 15.49292453  4803
STARLINK-34474          
1 64474U 25133C   25197.16668981  .00061224  00000+0  11023-2 0  9991
2 64474  53.1605 144.3047 0001064  88.8036 167.2589 15.49256054  4827
STARLINK-34523          
1 64475U 25133D   25196.91668981  .00044563  00000+0  80576-3 0  9991
2 64475  53.1609 145.4934 0001298  94.5358 208.2544 15.49272289  4846
STARLINK-34496          
1 64476U 25133E   25197.25002315  .00068292  00000+0  12268-2 0  9990
2 64476  53.1608 143.8971 0001399  87.0497 277.8653 15.49272497  4868
STARLINK-34375          
1 64477U 25133F   25196.91668981  .00030229  00000+0  54979-3 0  9995
2 64477  53.1608 145.4857 0001213  97.8274 208.7813 15.49292034  4867
STARLINK-34490          
1 64478U 25133G   25196.91668981  .00030005  00000+0  54590-3 0  9997
2 64478  53.1608 145.4777 0001356  94.4946 215.9528 15.49286749  4865
STARLINK-34528          
1 64479U 25133H   25196.91668981  .00037600  00000+0  68148-3 0  9990
2 64479  53.1607 145.4817 0001265  98.2471 210.2850 15.49282362  4788
STARLINK-34518          
1 64480U 25133J   25197.25002315  .00068656  00000+0  12334-2 0  9993
2 64480  53.1606 143.8815 0001268  91.2823 281.3015 15.49268935  4698
STARLINK-34526          
1 64481U 25133K   25197.25002315  .00070368  00000+0  12639-2 0  9995
2 64481  53.1606 143.8775 0001191  83.1485 291.3698 15.49264024  4742
STARLINK-34527          
1 64482U 25133L   25196.91668981  .00044629  00000+0  80682-3 0  9990
2 64482  53.1608 145.4653 0001311  91.2549 224.9505 15.49276433  4806
STARLINK-34420          
1 64483U 25133M   25197.25002315  .00070024  00000+0  12577-2 0  9997
2 64483  53.1606 143.8695 0001370  85.0304 293.3172 15.49266431  4850
