OBJECT_NAME,OBJECT_ID,EPOCH,MEAN_MOTION,ECCENTRICITY,INCLINATION,RA_OF_ASC_NODE,ARG_OF_PERICENTER,MEAN_ANOMALY,EPHEMERIS_TYPE,CLASSIFICATION_TYPE,NORAD_CAT_ID,ELEMENT_SET_NO,REV_AT_EPOCH,BSTAR,MEAN_MOTION_DOT,MEAN_MOTION_DDOT
STARLINK-34361,2025-130N,2025-07-16T03:43:12.736992,15.49343345,.0001336,53.1609,113.9564,42.4706,317.6406,0,U,64450,999,556,.68608E-3,.3794E-3,0
STARLINK-34392,2025-130P,2025-07-16T02:09:49.553568,15.49328945,.0001143,53.1610,114.2619,71.9266,288.1868,0,U,64451,999,562,.31955E-3,.17376E-3,0
STARLINK-34367,2025-130Q,2025-07-16T04:00:01.999584,15.43579367,.0001568,53.1604,113.9248,59.5571,354.1742,0,U,64452,999,562,-.43804E-1,-.1803999E-1,0
STARLINK-34221,2025-130R,2025-07-15T22:00:01.999584,15.39612225,.0001595,53.1609,115.1887,75.8054,347.5727,0,U,64453,999,566,-.68015E-4,-.3118E-4,0
STARLINK-34282,2025-130S,2025-07-16T03:41:20.786784,15.48888257,.0001752,53.1611,113.9471,64.4399,295.6790,0,U,64454,999,546,-.59357E-2,-.31305E-2,0
STARLINK-34295,2025-130T,2025-07-16T05:13:34.756896,15.49132524,.0002888,53.1603,113.6362,216.8134,143.2677,0,U,64455,999,562,.38604E-2,.219022E-2,0
STARLINK-34430,2025-130U,2025-07-16T02:07:21.217728,15.49317975,.000119,53.1602,114.2520,79.6814,280.4329,0,U,64456,999,559,.77501E-3,.42905E-3,0
STARLINK-34445,2025-130V,2025-07-16T03:39:45.213696,15.49330068,.0002057,53.1612,113.9401,41.8269,318.2897,0,U,64457,999,561,.37019E-3,.20209E-3,0
STARLINK-34439,2025-130W,2025-07-16T02:06:21.720960,15.49306482,.0001291,53.1608,114.2464,80.8636,279.2519,0,U,64458,999,559,.60254E-3,.33202E-3,0
STARLINK-34421,2025-130X,2025-07-16T03:38:45.752352,15.49328551,.0001369,53.1610,113.9351,77.7580,282.3582,0,U,64459,999,560,.34946E-3,.19048E-3,0
STARLINK-34423,2025-130Y,2025-07-16T03:38:16.157760,15.49316361,.0001539,53.1610,113.9334,73.2740,286.8438,0,U,64460,999,562,.71839E-4,.355E-4,0
STARLINK-34418,2025-130Z,2025-07-16T02:04:52.737600,15.49333003,.0001178,53.1613,114.2388,78.1413,281.9729,0,U,64461,999,559,.37864E-3,.20683E-3,0
STARLINK-34336,2025-130AA,2025-07-16T04:37:04.562688,15.73663720,.0000868,53.1588,112.0079,168.1608,191.9432,0,U,64462,999,565,-.1862E-2,-.259161E-2,0
STARLINK-34400,2025-130AB,2025-07-16T02:03:23.837184,15.49322162,.0001424,53.1615,114.2321,67.8806,292.2354,0,U,64463,999,560,.98168E-3,.54556E-3,0
STARLINK-34429,2025-130AC,2025-07-16T03:36:47.106144,15.49320519,.000118,53.1606,113.9263,85.0626,275.0518,0,U,64464,999,560,.88313E-3,.48996E-3,0
STARLINK-34449,2025-130AD,2025-07-16T03:35:49.492896,15.49298222,.000069,53.1601,113.9214,100.2433,259.8654,0,U,64465,999,561,.14223E-2,.79432E-3,0
COSMOS 2589,2025-131A,2025-07-15T18:32:50.959392,1.00268214,.365536,0.9946,280.8629,173.8068,219.0819,0,U,64467,999,25,0,-.279E-5,0
CHINASAT 9C,2025-132B,2025-07-15T16:34:26.199264,2.24748052,.732547,27.7572,85.8105,194.9251,118.0005,0,U,64471,999,56,.18706E-2,.17863E-3,0
STARLINK-34493,2025-133A,2025-07-16T04:00:01.999584,15.49567292,.0000997,53.1605,144.3126,80.7627,171.4088,0,U,64472,999,484,-.29445E-1,-.1497124E-1,0
STARLINK-34492,2025-133B,2025-07-15T22:00:01.999584,15.49292453,.0000945,53.1607,145.5025,100.8036,198.1372,0,U,64473,999,480,.57324E-3,.31543E-3,0
STARLINK-34474,2025-133C,2025-07-16T04:00:01.999584,15.49256054,.0001064,53.1605,144.3047,88.8036,167.2589,0,U,64474,999,482,.11023E-2,.61224E-3,0
STARLINK-34523,2025-133D,2025-07-15T22:00:01.999584,15.49272289,.0001298,53.1609,145.4934,94.5358,208.2544,0,U,64475,999,484,.80576E-3,.44563E-3,0
STARLINK-34496,2025-133E,2025-07-16T06:00:02.000160,15.49272497,.0001399,53.1608,143.8971,87.0497,277.8653,0,U,64476,999,486,.12268E-2,.68292E-3,0
STARLINK-34375,2025-133F,2025-07-15T22:00:01.999584,15.49292034,.0001213,53.1608,145.4857,97.8274,208.7813,0,U,64477,999,486,.54979E-3,.30229E-3,0
STARLINK-34490,2025-133G,2025-07-15T22:00:01.999584,15.49286749,.0001356,53.1608,145.4777,94.4946,215.9528,0,U,64478,999,486,.5459E-3,.30005E-3,0
STARLINK-34528,2025-133H,2025-07-15T22:00:01.999584,15.49282362,.0001265,53.1607,145.4817,98.2471,210.2850,0,U,64479,999,478,.68148E-3,.376E-3,0
STARLINK-34518,2025-133J,2025-07-16T06:00:02.000160,15.49268935,.0001268,53.1606,143.8815,91.2823,281.3015,0,U,64480,999,469,.12334E-2,.68656E-3,0
STARLINK-34526,2025-133K,2025-07-16T06:00:02.000160,15.49264024,.0001191,53.1606,143.8775,83.1485,291.3698,0,U,64481,999,474,.12639E-2,.70368E-3,0
STARLINK-34527,2025-133L,2025-07-15T22:00:01.999584,15.49276433,.0001311,53.1608,145.4653,91.2549,224.9505,0,U,64482,999,480,.80682E-3,.44629E-3,0
STARLINK-34420,2025-133M,2025-07-16T06:00:02.000160,15.49266431,.000137,53.1606,143.8695,85.0304,293.3172,0,U,64483,999,485,.12577E-2,.70024E-3,0
